ONEWEB-0289             
1 49079U 21075E   24102.70117973  .00000009  00000+0 -10117-4 0  9991
2 49079  87.9227 164.3805 0001857  99.9334 260.2007 13.17649125129313
ONEWEB-0290             
1 49080U 21075F   24102.91158511 -.00000033  00000+0 -11763-3 0  9994
2 49080  87.9227 164.3009 0002400 109.8954 250.2436 13.17647306128756
ONEWEB-0291             
1 49081U 21075G   24102.89576733 -.00000011  00000+0 -60820-4 0  9997
2 49081  87.9219 164.3284 0002381 103.3597 256.7800 13.17649569128741
ONEWEB-0293             
1 49082U 21075H   24102.92108219  .00000158  00000+0  37455-3 0  9999
2 49082  87.9226 164.3338 0002306 106.7354 253.4031 13.17648186128772
ONEWEB-0294             
1 49083U 21075J   24102.87825124  .00000381  00000+0  10235-2 0  9999
2 49083  87.8969 149.1925 0002569 110.5751 249.5654 13.12442430130122
ONEWEB-0295             
1 49084U 21075K   24103.22640494  .00000063  00000+0  12979-3 0  9990
2 49084  87.9224 164.2500 0002580  98.7326 261.4098 13.17649636129735
ONEWEB-0296             
1 49085U 21075L   24102.55580965 -.00000398  00000+0 -11406-2 0  9998
2 49085  87.8970 149.2567 0002813 101.4224 258.7221 13.12442837131073
ONEWEB-0297             
1 49086U 21075M   24102.89254405  .00000377  00000+0  10127-2 0  9997
2 49086  87.8979 149.1917 0002005  94.5853 265.5504 13.12440926130733
